[
    {
        "Altitude(m)": 707458.0591397645,
        "Argument of Periapsis(deg)": 0.009112096949301655,
        "Eccentricity": 0.0,
        "Inclination(deg)": 45.0,
        "Latitude(deg)": -17.938132742322562,
        "Longitude(deg)": -76.82990269647703,
        "Mean Anomaly(deg)": -154.40982668201536,
        "RAAN(deg)": 184.99139844683344,
        "Satellite Name": "Constellation 1 826",
        "Satellite Number": 826,
        "Semi-Major Axis(m)": 7083131.272910544,
        "Time(s)": 152
    },
    {
        "Altitude(m)": 707470.7037928061,
        "Argument of Periapsis(deg)": 0.009172044955547059,
        "Eccentricity": 0.0,
        "Inclination(deg)": 45.0,
        "Latitude(deg)": -17.97896599683403,
        "Longitude(deg)": -76.78672532912785,
        "Mean Anomaly(deg)": -154.34912554176543,
        "RAAN(deg)": 184.99134185766786,
        "Satellite Name": "Constellation 1 826",
        "Satellite Number": 826,
        "Semi-Major Axis(m)": 7083131.272910544,
        "Time(s)": 153
    },
    {
        "Altitude(m)": 707483.3586426281,
        "Argument of Periapsis(deg)": 0.009231992961792466,
        "Eccentricity": 0.0,
        "Inclination(deg)": 45.0,
        "Latitude(deg)": -18.01978745554384,
        "Longitude(deg)": -76.74352634455971,
        "Mean Anomaly(deg)": -154.28842440151558,
        "RAAN(deg)": 184.9912852685023,
        "Satellite Name": "Constellation 1 826",
        "Satellite Number": 826,
        "Semi-Major Axis(m)": 7083131.272910544,
        "Time(s)": 154
    },
    {
        "Altitude(m)": 707496.0236491571,
        "Argument of Periapsis(deg)": 0.009291940968037872,
        "Eccentricity": 0.0,
        "Inclination(deg)": 45.0,
        "Latitude(deg)": -18.060597085036367,
        "Longitude(deg)": -76.70030568639021,
        "Mean Anomaly(deg)": -154.22772326126562,
        "RAAN(deg)": 184.9912286793367,
        "Satellite Name": "Constellation 1 826",
        "Satellite Number": 826,
        "Semi-Major Axis(m)": 7083131.272910544,
        "Time(s)": 155
    },
    {
        "Altitude(m)": 707508.698772255,
        "Argument of Periapsis(deg)": 0.009351888974283276,
        "Eccentricity": 0.0,
        "Inclination(deg)": 45.0,
        "Latitude(deg)": -18.101394851853794,
        "Longitude(deg)": -76.65706346630425,
        "Mean Anomaly(deg)": -154.16702212101575,
        "RAAN(deg)": 184.99117209017115,
        "Satellite Name": "Constellation 1 826",
        "Satellite Number": 826,
        "Semi-Major Axis(m)": 7083131.272910544,
        "Time(s)": 156
    },
    {
        "Altitude(m)": 707521.383971737,
        "Argument of Periapsis(deg)": 0.00941183698052868,
        "Eccentricity": 0.0,
        "Inclination(deg)": 45.0,
        "Latitude(deg)": -18.142180722495883,
        "Longitude(deg)": -76.61379929166557,
        "Mean Anomaly(deg)": -154.10632098076584,
        "RAAN(deg)": 184.99111550100557,
        "Satellite Name": "Constellation 1 826",
        "Satellite Number": 826,
        "Semi-Major Axis(m)": 7083131.272910544,
        "Time(s)": 157
    },
    {
        "Altitude(m)": 707534.0792073678,
        "Argument of Periapsis(deg)": 0.009471784986774088,
        "Eccentricity": 0.0,
        "Inclination(deg)": 45.0,
        "Latitude(deg)": -18.182954663420144,
        "Longitude(deg)": -76.57051327409954,
        "Mean Anomaly(deg)": -154.04561984051594,
        "RAAN(deg)": 184.99105891184,
        "Satellite Name": "Constellation 1 826",
        "Satellite Number": 826,
        "Semi-Major Axis(m)": 7083131.272910544,
        "Time(s)": 158
    },
    {
        "Altitude(m)": 707546.784438849,
        "Argument of Periapsis(deg)": 0.009531732993019492,
        "Eccentricity": 0.0,
        "Inclination(deg)": 45.0,
        "Latitude(deg)": -18.22371664104144,
        "Longitude(deg)": -76.52720535710479,
        "Mean Anomaly(deg)": -153.98491870026606,
        "RAAN(deg)": 184.9910023226744,
        "Satellite Name": "Constellation 1 826",
        "Satellite Number": 826,
        "Semi-Major Axis(m)": 7083131.272910544,
        "Time(s)": 159
    },
    {
        "Altitude(m)": 707559.4996258444,
        "Argument of Periapsis(deg)": 0.009591680999264898,
        "Eccentricity": 0.0,
        "Inclination(deg)": 45.0,
        "Latitude(deg)": -18.264466621732144,
        "Longitude(deg)": -76.48387548414998,
        "Mean Anomaly(deg)": -153.9242175600162,
        "RAAN(deg)": 184.99094573350885,
        "Satellite Name": "Constellation 1 826",
        "Satellite Number": 826,
        "Semi-Major Axis(m)": 7083131.272910544,
        "Time(s)": 160
    },
    {
        "Altitude(m)": 707572.2247279459,
        "Argument of Periapsis(deg)": 0.009651629005510304,
        "Eccentricity": 0.0,
        "Inclination(deg)": 45.0,
        "Latitude(deg)": -18.305204571821722,
        "Longitude(deg)": -76.44052359867429,
        "Mean Anomaly(deg)": -153.86351641976628,
        "RAAN(deg)": 184.9908891443433,
        "Satellite Name": "Constellation 1 826",
        "Satellite Number": 826,
        "Semi-Major Axis(m)": 7083131.272910544,
        "Time(s)": 161
    },
    {
        "Altitude(m)": 707584.9597047061,
        "Argument of Periapsis(deg)": 0.00971157701175571,
        "Eccentricity": 0.0,
        "Inclination(deg)": 45.0,
        "Latitude(deg)": -18.345930457596836,
        "Longitude(deg)": -76.39714964408734,
        "Mean Anomaly(deg)": -153.80281527951638,
        "RAAN(deg)": 184.99083255517772,
        "Satellite Name": "Constellation 1 826",
        "Satellite Number": 826,
        "Semi-Major Axis(m)": 7083131.272910544,
        "Time(s)": 162
    },
    {
        "Altitude(m)": 707597.7045156199,
        "Argument of Periapsis(deg)": 0.009771525018001118,
        "Eccentricity": 0.0,
        "Inclination(deg)": 45.0,
        "Latitude(deg)": -18.38664424530127,
        "Longitude(deg)": -76.35375373186605,
        "Mean Anomaly(deg)": -153.74211413926645,
        "RAAN(deg)": 184.99077596601217,
        "Satellite Name": "Constellation 1 826",
        "Satellite Number": 826,
        "Semi-Major Axis(m)": 7083131.272910544,
        "Time(s)": 163
    },
    {
        "Altitude(m)": 707610.4591201296,
        "Argument of Periapsis(deg)": 0.00983147302424652,
        "Eccentricity": 0.0,
        "Inclination(deg)": 45.0,
        "Latitude(deg)": -18.427345901135403,
        "Longitude(deg)": -76.31033546916667,
        "Mean Anomaly(deg)": -153.68141299901657,
        "RAAN(deg)": 184.99071937684656,
        "Satellite Name": "Constellation 1 826",
        "Satellite Number": 826,
        "Semi-Major Axis(m)": 7083131.272910544,
        "Time(s)": 164
    },
    {
        "Altitude(m)": 707623.2234776277,
        "Argument of Periapsis(deg)": 0.009891421030491928,
        "Eccentricity": 0.0,
        "Inclination(deg)": 45.0,
        "Latitude(deg)": -18.468035391256755,
        "Longitude(deg)": -76.26689496740708,
        "Mean Anomaly(deg)": -153.62071185876664,
        "RAAN(deg)": 184.990662787681,
        "Satellite Name": "Constellation 1 826",
        "Satellite Number": 826,
        "Semi-Major Axis(m)": 7083131.272910544,
        "Time(s)": 165
    },
    {
        "Altitude(m)": 707635.9975474525,
        "Argument of Periapsis(deg)": 0.009951369036737332,
        "Eccentricity": 0.0,
        "Inclination(deg)": 45.0,
        "Latitude(deg)": -18.50871268177934,
        "Longitude(deg)": -76.22343216987856,
        "Mean Anomaly(deg)": -153.5600107185168,
        "RAAN(deg)": 184.99060619851545,
        "Satellite Name": "Constellation 1 826",
        "Satellite Number": 826,
        "Semi-Major Axis(m)": 7083131.272910544,
        "Time(s)": 166
    },
    {
        "Altitude(m)": 707648.7812888878,
        "Argument of Periapsis(deg)": 0.010011317042982738,
        "Eccentricity": 0.0,
        "Inclination(deg)": 45.0,
        "Latitude(deg)": -18.549377738773792,
        "Longitude(deg)": -76.17994701984306,
        "Mean Anomaly(deg)": -153.4993095782669,
        "RAAN(deg)": 184.99054960934987,
        "Satellite Name": "Constellation 1 826",
        "Satellite Number": 826,
        "Semi-Major Axis(m)": 7083131.272910544,
        "Time(s)": 167
    },
    {
        "Altitude(m)": 707661.5746611719,
        "Argument of Periapsis(deg)": 0.010071265049228144,
        "Eccentricity": 0.0,
        "Inclination(deg)": 45.0,
        "Latitude(deg)": -18.590030528267167,
        "Longitude(deg)": -76.13643946053294,
        "Mean Anomaly(deg)": -153.43860843801696,
        "RAAN(deg)": 184.99049302018432,
        "Satellite Name": "Constellation 1 826",
        "Satellite Number": 826,
        "Semi-Major Axis(m)": 7083131.272910544,
        "Time(s)": 168
    },
    {
        "Altitude(m)": 707674.3776234897,
        "Argument of Periapsis(deg)": 0.01013121305547355,
        "Eccentricity": 0.0,
        "Inclination(deg)": 45.0,
        "Latitude(deg)": -18.630671016242818,
        "Longitude(deg)": -76.09290943515134,
        "Mean Anomaly(deg)": -153.37790729776708,
        "RAAN(deg)": 184.99043643101876,
        "Satellite Name": "Constellation 1 826",
        "Satellite Number": 826,
        "Semi-Major Axis(m)": 7083131.272910544,
        "Time(s)": 169
    },
    {
        "Altitude(m)": 707687.1901349635,
        "Argument of Periapsis(deg)": 0.010191161061718957,
        "Eccentricity": 0.0,
        "Inclination(deg)": 45.0,
        "Latitude(deg)": -18.671299168640395,
        "Longitude(deg)": -76.04935688687199,
        "Mean Anomaly(deg)": -153.31720615751718,
        "RAAN(deg)": 184.99037984185316,
        "Satellite Name": "Constellation 1 826",
        "Satellite Number": 826,
        "Semi-Major Axis(m)": 7083131.272910544,
        "Time(s)": 170
    }
]